[{"OBJECT_NAME":"STARLINK-6149","OBJECT_ID":"2023-090X","EPOCH":"2026-03-09T22:33:57.318336","MEAN_MOTION":15.02535977,"ECCENTRICITY":0.00011683,"INCLINATION":43.0026,"RA_OF_ASC_NODE":273.0666,"ARG_OF_PERICENTER":263.3397,"MEAN_ANOMALY":96.7312,"EPHEMERIS_TYPE":0,"CLASSIFICATION_TYPE":"U","NORAD_CAT_ID":57122,"ELEMENT_SET_NO":999,"REV_AT_EPOCH":15045,"BSTAR":2.3246579e-5,"MEAN_MOTION_DOT":1.1e-6,"MEAN_MOTION_DDOT":0},{"OBJECT_NAME":"DELTA 1 DEB","OBJECT_ID":"1972-058EG","EPOCH":"2026-03-09T15:29:57.375744","MEAN_MOTION":14.93143945,"ECCENTRICITY":0.0071537,"INCLINATION":98.4418,"RA_OF_ASC_NODE":299.7647,"ARG_OF_PERICENTER":185.1751,"MEAN_ANOMALY":174.8735,"EPHEMERIS_TYPE":0,"CLASSIFICATION_TYPE":"U","NORAD_CAT_ID":8314,"ELEMENT_SET_NO":999,"REV_AT_EPOCH":83297,"BSTAR":0.00043799,"MEAN_MOTION_DOT":4.734e-5,"MEAN_MOTION_DDOT":0}]
